KUIPER-00112            
1 65150U 25171U   25230.83337963  .00067048  00000+0  19455-2 0  9997
2 65150  51.8774   9.4558 0005840 179.1157 296.6761 15.34877320  2166
KUIPER-00114            
1 65151U 25171V   25230.83337963  .00067897  00000+0  19612-2 0  9995
2 65151  51.8770   9.4450 0005810 169.8449 310.6334 15.35014445  1592
KUIPER-00115            
1 65152U 25171W   25230.83337963  .00067978  00000+0  19389-2 0  9997
2 65152  51.8768   9.4213 0005950 152.4912 338.3447 15.35409682  1655
KUIPER-00116            
1 65153U 25171X   25230.83337963  .00067503  00000+0  19405-2 0  9991
2 65153  51.8777   9.4418 0005439 167.2224 316.2813 15.35169484  1357
KUIPER-00118            
1 65154U 25171Y   25230.83337963  .00067079  00000+0  19424-2 0  9991
2 65154  51.8773   9.4510 0005279 174.4208 303.6945 15.34944671  2356
KUIPER-00119            
1 65155U 25171Z   25230.83337963  .00075468  00000+0  21394-2 0  9992
2 65155  51.8771   9.4108 0006454 151.9795 344.4809 15.35549767  1534
